NORAD_CAT_ID,OBJECT_NAME,OBJECT_TYPE,EPOCH,MEAN_MOTION,ECCENTRICITY,INCLINATION,RA_OF_ASC_NODE,ARG_OF_PERICENTER,MEAN_ANOMALY,BSTAR,MEAN_MOTION_DOT,MEAN_MOTION_DDOT,TLE_LINE0,TLE_LINE1,TLE_LINE2,SEMIMAJOR_AXIS,PERIOD,APOGEE,PERIGEE,DECAYED
52852.0,STARLINK-4184,PAYLOAD,2023-07-30 09:12:09,15.08837535,0.0001091,53.2175,343.6817,55.1966,304.9129,2.2243e-07,-2.84e-06,0.0,0 STARLINK-4184,1 52852U 22062Y   23211.38343802 -.00000284  00000-0  22243-6 0  9998,2 52852  53.2175 343.6817 0001091  55.1966 304.9129 15.08837535 62496,6917.888,95.438,540.508,538.998,0.0
52852.0,STARLINK-4184,PAYLOAD,2023-07-30 18:44:27,15.08851595,9.47e-05,53.2186,341.8954,70.2005,289.9089,0.00016615,2.358e-05,0.0,0 STARLINK-4184,1 52852U 22062Y   23211.78087021  .00002358  00000-0  16615-3 0  9996,2 52852  53.2186 341.8954 0000947  70.2005 289.9089 15.08851595 62557,6917.845,95.437,540.365,539.055,0.0
52852.0,STARLINK-4184,PAYLOAD,2023-07-31 09:02:55,15.08840448,0.0001167,53.2189,339.217,112.8472,247.2643,0.00011425,1.531e-05,0.0,0 STARLINK-4184,1 52852U 22062Y   23212.37703622  .00001531  00000-0  11425-3 0  9990,2 52852  53.2189 339.2170 0001167 112.8472 247.2643 15.08840448 62645,6917.879,95.438,540.551,538.937,0.0
52852.0,STARLINK-4184,PAYLOAD,2023-07-31 15:24:28,15.08850637,8.92e-05,53.218,338.0314,82.7119,277.3975,0.00014557,2.03e-05,0.0,0 STARLINK-4184,1 52852U 22062Y   23212.64199080  .00002030  00000-0  14557-3 0  9991,2 52852  53.2180 338.0314 0000892  82.7119 277.3975 15.08850637 62687,6917.848,95.437,540.33,539.096,0.0
52852.0,STARLINK-4184,PAYLOAD,2023-08-01 18:26:01,15.08844212,0.0001014,53.2185,332.9737,84.8881,275.2227,0.00038256,5.807e-05,0.0,0 STARLINK-4184,1 52852U 22062Y   23213.76807559  .00005807  00000-0  38256-3 0  9999,2 52852  53.2185 332.9737 0001014  84.8881 275.2227 15.08844212 62858,6917.868,95.437,540.434,539.031,0.0
52852.0,STARLINK-4184,PAYLOAD,2023-08-02 08:44:30,15.08838549,0.0001161,53.2183,330.2967,97.2924,262.82,0.00031006,4.65e-05,0.0,0 STARLINK-4184,1 52852U 22062Y   23214.36423860  .00004650  00000-0  31006-3 0  9996,2 52852  53.2183 330.2967 0001161  97.2924 262.8200 15.08838549 62940,6917.885,95.438,540.553,538.947,0.0
52852.0,STARLINK-4184,PAYLOAD,2023-08-02 19:52:11,15.08862829,0.0001116,53.2179,328.215,97.0525,263.0594,0.00088397,0.00013817,0.0,0 STARLINK-4184,1 52852U 22062Y   23214.82791248  .00013817  00000-0  88397-3 0  9995,2 52852  53.2179 328.2150 0001116  97.0525 263.0594 15.08862829 63017,6917.811,95.436,540.448,538.904,0.0
52852.0,STARLINK-4184,PAYLOAD,2023-08-03 14:56:49,15.08852029,0.0001155,53.2182,324.6475,79.3099,280.8023,0.00047925,7.35e-05,0.0,0 STARLINK-4184,1 52852U 22062Y   23215.62279341  .00007350  00000-0  47925-3 0  9996,2 52852  53.2182 324.6475 0001155  79.3099 280.8023 15.08852029 63131,6917.844,95.437,540.508,538.91,0.0
52852.0,STARLINK-4184,PAYLOAD,2023-08-04 06:50:40,15.08821295,8.29e-05,53.2181,321.6723,137.6433,222.4623,-0.00027014,-4.582e-05,0.0,0 STARLINK-4184,1 52852U 22062Y   23216.28519556 -.00004582  00000-0 -27014-3 0  9997,2 52852  53.2181 321.6723 0000829 137.6433 222.4623 15.08821295 63230,6917.938,95.439,540.376,539.229,0.0
52852.0,STARLINK-4184,PAYLOAD,2023-08-04 13:12:13,15.08836044,0.0001033,53.2162,320.4852,98.419,261.6919,0.00081438,0.00012695,0.0,0 STARLINK-4184,1 52852U 22062Y   23216.55015838  .00012695  00000-0  81438-3 0  9993,2 52852  53.2162 320.4852 0001033  98.4190 261.6919 15.08836044 63276,6917.892,95.438,540.472,539.043,0.0
52852.0,STARLINK-4184,PAYLOAD,2023-08-05 16:13:46,15.08875186,0.0001105,53.2153,315.4313,75.3091,284.8023,0.0013992,0.00022072,0.0,0 STARLINK-4184,1 52852U 22062Y   23217.67623207  .00022072  00000-0  13992-2 0  9991,2 52852  53.2153 315.4313 0001105  75.3091 284.8023 15.08875186 63448,6917.773,95.435,540.402,538.873,0.0
52852.0,STARLINK-4184,PAYLOAD,2023-08-06 00:10:42,15.08851371,0.000108,53.2169,313.9416,123.8017,236.3078,0.00039757,6.047e-05,0.0,0 STARLINK-4184,1 52852U 22062Y   23218.00743318  .00006047  00000-0  39757-3 0  9997,2 52852  53.2169 313.9416 0001080 123.8017 236.3078 15.08851371 63498,6917.846,95.437,540.458,538.964,0.0
52852.0,STARLINK-4184,PAYLOAD,2023-08-06 09:43:01,15.08822024,0.000115,53.2166,312.1612,92.9742,267.1382,-0.00045466,-7.513e-05,0.0,0 STARLINK-4184,1 52852U 22062Y   23218.40488294 -.00007513  00000-0 -45466-3 0  9995,2 52852  53.2166 312.1612 0001150  92.9742 267.1382 15.08822024 63553,6917.935,95.439,540.596,539.005,0.0
52852.0,STARLINK-4184,PAYLOAD,2023-08-06 16:04:34,15.08824904,0.0001299,53.2175,310.9721,104.8844,255.2292,0.00016995,2.417e-05,0.0,0 STARLINK-4184,1 52852U 22062Y   23218.66984749  .00002417  00000-0  16995-3 0  9990,2 52852  53.2175 310.9721 0001299 104.8844 255.2292 15.08824904 63591,6917.927,95.439,540.69,538.893,0.0
52852.0,STARLINK-4184,PAYLOAD,2023-08-07 09:33:49,15.08843628,0.0001077,53.2172,307.7001,103.43,256.6812,0.0011915,0.00018727,0.0,0 STARLINK-4184,1 52852U 22062Y   23219.39849313  .00018727  00000-0  11915-2 0  9995,2 52852  53.2172 307.7001 0001077 103.4300 256.6812 15.08843628 63709,6917.869,95.437,540.479,538.989,0.0
52852.0,STARLINK-4184,PAYLOAD,2023-08-07 22:16:54,15.08854284,0.0001447,53.2171,305.3205,89.5823,270.5335,0.00089589,0.00014004,0.0,0 STARLINK-4184,1 52852U 22062Y   23219.92841289  .00014004  00000-0  89589-3 0  9995,2 52852  53.2171 305.3205 0001447  89.5823 270.5335 15.08854284 63786,6917.837,95.437,540.703,538.701,0.0
52852.0,STARLINK-4184,PAYLOAD,2023-08-08 22:07:40,15.08838368,7.29e-05,53.2172,300.8601,94.1727,265.9348,-0.00013872,-2.495e-05,0.0,0 STARLINK-4184,1 52852U 22062Y   23220.92199961 -.00002495  00000-0 -13872-3 0  9995,2 52852  53.2172 300.8601 0000729  94.1727 265.9348 15.08838368 63938,6917.885,95.438,540.255,539.246,0.0
52852.0,STARLINK-4184,PAYLOAD,2023-08-09 09:15:23,15.08832031,9.72e-05,53.2175,298.7794,102.274,257.8361,-0.00015777,-2.797e-05,0.0,0 STARLINK-4184,1 52852U 22062Y   23221.38568772 -.00002797  00000-0 -15777-3 0  9997,2 52852  53.2175 298.7794 0000972 102.2740 257.8361 15.08832031 64000,6917.905,95.438,540.442,539.097,0.0
52852.0,STARLINK-4184,PAYLOAD,2023-08-10 09:06:10,15.08847298,9.56e-05,53.217,294.3185,91.5306,268.5796,0.00033484,5.046e-05,0.0,0 STARLINK-4184,1 52852U 22062Y   23222.37928831  .00005046  00000-0  33484-3 0  9996,2 52852  53.2170 294.3185 0000956  91.5306 268.5796 15.08847298 64159,6917.858,95.437,540.384,539.062,0.0
52852.0,STARLINK-4184,PAYLOAD,2023-08-10 17:03:06,15.0885886,9.16e-05,53.2163,292.8309,84.2447,275.8649,0.00081968,0.00012788,0.0,0 STARLINK-4184,1 52852U 22062Y   23222.71048633  .00012788  00000-0  81968-3 0  9998,2 52852  53.2163 292.8309 0000916  84.2447 275.8649 15.08858860 64204,6917.823,95.436,540.321,539.054,0.0
52852.0,STARLINK-4184,PAYLOAD,2023-08-11 08:56:57,15.08848202,0.0001021,53.2162,289.8575,103.771,256.3396,0.00027343,4.067e-05,0.0,0 STARLINK-4184,1 52852U 22062Y   23223.37288690  .00004067  00000-0  27343-3 0  9998,2 52852  53.2162 289.8575 0001021 103.7710 256.3396 15.08848202 64305,6917.855,95.437,540.427,539.014,0.0
52852.0,STARLINK-4184,PAYLOAD,2023-08-11 21:40:02,15.08844657,0.0001095,53.2158,287.4789,71.9593,288.1518,0.00036305,5.496e-05,0.0,0 STARLINK-4184,1 52852U 22062Y   23223.90280880  .00005496  00000-0  36305-3 0  9995,2 52852  53.2158 287.4789 0001095  71.9593 288.1518 15.08844657 64384,6917.866,95.437,540.489,538.974,0.0
52852.0,STARLINK-4184,PAYLOAD,2023-08-12 10:23:07,15.08841234,0.0001031,53.2157,285.1008,72.6341,287.4764,0.00010297,1.351e-05,0.0,0 STARLINK-4184,1 52852U 22062Y   23224.43272998  .00001351  00000-0  10297-3 0  9993,2 52852  53.2157 285.1008 0001031  72.6341 287.4764 15.08841234 64463,6917.877,95.437,540.455,539.028,0.0
52852.0,STARLINK-4184,PAYLOAD,2023-08-13 03:52:22,15.08833687,0.0001065,53.2179,281.824,118.5109,241.599,-2.0119e-05,-6.08e-06,0.0,0 STARLINK-4184,1 52852U 22062Y   23225.16137257 -.00000608  00000-0 -20119-4 0  9993,2 52852  53.2179 281.8240 0001065 118.5109 241.5990 15.08833687 64574,6917.9,95.438,540.501,539.028,0.0
52852.0,STARLINK-4184,PAYLOAD,2023-08-14 10:04:41,15.08849231,0.0001069,53.2157,276.1772,88.1017,272.0097,0.00021566,3.147e-05,0.0,0 STARLINK-4184,1 52852U 22062Y   23226.41993040  .00003147  00000-0  21566-3 0  9997,2 52852  53.2157 276.1772 0001069  88.1017 272.0097 15.08849231 64761,6917.852,95.437,540.457,538.978,0.0
52852.0,STARLINK-4184,PAYLOAD,2023-08-15 08:20:06,15.0884121,0.0001118,53.2159,272.0157,75.8421,284.2696,0.00016098,2.275e-05,0.0,0 STARLINK-4184,1 52852U 22062Y   23227.34729459  .00002275  00000-0  16098-3 0  9996,2 52852  53.2159 272.0157 0001118  75.8421 284.2696 15.08841210 64907,6917.877,95.437,540.515,538.968,0.0
52852.0,STARLINK-4184,PAYLOAD,2023-08-16 14:32:25,15.08842926,0.0001164,53.216,266.3654,80.9365,279.1758,1.7243e-05,-1.3e-07,0.0,0 STARLINK-4184,1 52852U 22062Y   23228.60585222 -.00000013  00000-0  17243-4 0  9997,2 52852  53.2160 266.3654 0001164  80.9365 279.1758 15.08842926 65090,6917.871,95.437,540.542,538.931,0.0
52852.0,STARLINK-4184,PAYLOAD,2023-08-17 19:09:22,15.08839042,0.0001333,53.2164,261.0116,82.8087,277.3057,2.9857e-05,1.87e-06,0.0,0 STARLINK-4184,1 52852U 22062Y   23229.79817471  .00000187  00000-0  29857-4 0  9997,2 52852  53.2164 261.0116 0001333  82.8087 277.3057 15.08839042 65276,6917.883,95.438,540.67,538.826,0.0
52852.0,STARLINK-4184,PAYLOAD,2023-08-19 01:21:42,15.08837553,0.0001088,53.216,255.3621,86.5929,273.5187,5.3845e-05,5.69e-06,0.0,0 STARLINK-4184,1 52852U 22062Y   23231.05673668  .00000569  00000-0  53845-4 0  9995,2 52852  53.2160 255.3621 0001088  86.5929 273.5187 15.08837553 65460,6917.888,95.438,540.506,539.0,0.0
52852.0,STARLINK-4184,PAYLOAD,2023-08-19 14:04:46,15.08846796,0.0001271,53.217,252.9829,88.5967,271.5171,7.3758e-05,8.86e-06,0.0,0 STARLINK-4184,1 52852U 22062Y   23231.58665304  .00000886  00000-0  73758-4 0  9998,2 52852  53.2170 252.9829 0001271  88.5967 271.5171 15.08846796 65541,6917.86,95.437,540.604,538.845,0.0
